OBJECT_NAME,OBJECT_ID,EPOCH,MEAN_MOTION,ECCENTRICITY,INCLINATION,RA_OF_ASC_NODE,ARG_OF_PERICENTER,MEAN_ANOMALY,EPHEMERIS_TYPE,CLASSIFICATION_TYPE,NORAD_CAT_ID,ELEMENT_SET_NO,REV_AT_EPOCH,BSTAR,MEAN_MOTION_DOT,MEAN_MOTION_DDOT
EUTELSAT HOTBIRD 13C,2008-065A,2026-07-22T11:04:59.012832,1.00275154,.00032769,3.0384,78.7725,41.6911,295.6454,0,U,33459,999,4769,0,-.282E-5,0
EXPRESS-AM44,2009-007A,2026-07-22T07:50:52.342080,1.00271825,.00039461,3.5518,77.9667,32.8325,295.9642,0,U,33595,999,5263,0,-.89E-6,0
NSS-9,2009-008A,2026-07-22T12:56:38.687424,1.00271374,.00023974,1.3506,82.3104,23.6269,211.5652,0,U,33749,999,6387,0,.74E-6,0
TELSTAR 11N,2009-009A,2026-07-22T07:43:15.571200,1.00272797,.00025709,0.0146,44.4248,67.0443,266.8647,0,U,34111,999,4659,0,-.247E-5,0
WGS F2 (USA 204),2009-017A,2026-07-22T03:02:28.211424,1.00274111,.0000425,0.0147,67.6144,56.0121,279.3692,0,U,34713,999,4596,0,.7E-6,0
SES-7 (PROTOSTAR 2),2009-027A,2026-07-22T14:04:53.052960,1.00270458,.00013514,0.0088,33.9706,155.7647,70.0440,0,U,34941,999,6298,0,-.341E-5,0
MEASAT-3A,2009-032A,2026-07-22T13:58:08.184288,1.00272540,.00029357,0.0217,5.0200,105.2149,199.6224,0,U,35362,999,838,0,-.107E-5,0
EWS-G3 (GOES 14),2009-033A,2026-07-22T12:48:38.791584,1.00094950,.00022244,1.7784,82.6044,39.1915,131.0866,0,U,35491,999,694,0,-.357E-5,0
FM-5,2009-034A,2026-07-22T09:57:38.490912,1.00269908,.00008339,0.0416,259.0521,127.9469,336.3902,0,U,35493,999,4699,0,-.196E-5,0
TERRESTAR-1,2009-035A,2026-07-22T11:40:38.727840,1.00272401,.00025114,5.1962,48.7608,67.6033,248.0318,0,U,35496,999,6248,0,-.57E-6,0
ASIASAT 5,2009-042A,2026-07-22T03:20:38.575968,1.00271191,.00012789,0.0135,49.1374,47.9625,353.4809,0,U,35696,999,6206,0,-.304E-5,0
JCSAT-12 (JCSAT-RA),2009-044A,2026-07-22T12:39:38.669760,1.00272362,.00004932,0.0402,270.2445,267.0181,84.9670,0,U,35755,999,6196,0,-.324E-5,0
OPTUS D3,2009-044B,2026-07-22T10:38:08.872800,1.00270669,.0003469,0.8954,268.1958,214.5656,133.0881,0,U,35756,999,6191,0,-.142E-5,0
NIMIQ 5,2009-050A,2026-07-22T10:58:37.123104,1.00271996,.00029063,0.0616,258.4979,211.0934,282.5690,0,U,35873,999,6169,0,-.253E-5,0
AMAZONAS 2,2009-054A,2026-07-22T10:58:44.611392,1.00272403,.0003451,1.9043,82.5981,33.4553,276.8458,0,U,35942,999,6153,0,-.257E-5,0
COMSATBW-1,2009-054B,2026-07-22T11:37:18.413760,1.00272446,.00029666,0.0666,152.1374,328.4680,56.9514,0,U,35943,999,6166,0,.28E-6,0
NSS-12,2009-058A,2026-07-22T11:35:33.582048,1.00273873,.00049365,0.0746,268.9607,174.9538,87.2026,0,U,36032,999,6127,0,.75E-6,0
THOR 6,2009-058B,2026-07-22T07:53:44.566656,1.00273058,.00019024,0.0168,109.3008,17.1482,291.2179,0,U,36033,999,6135,0,-.6E-7,0
INTELSAT 14 (IS-14),2009-064A,2026-07-22T11:06:28.868832,1.00271355,.00025523,0.0181,51.7816,71.7168,298.3234,0,U,36097,999,6095,0,-.27E-5,0
EUTELSAT 36B,2009-065A,2026-07-22T11:33:41.261184,1.00272368,.00057665,0.5775,81.3632,36.0065,46.7588,0,U,36101,999,6106,0,.115E-5,0
INTELSAT 15 (IS-15),2009-067A,2026-07-22T10:00:54.988704,1.00272250,.00023768,0.0153,55.5822,64.1162,55.8434,0,U,36106,999,4158,0,-.182E-5,0
WGS F3 (USA 211),2009-068A,2026-07-22T10:42:16.190208,1.00264639,.00003288,0.2917,85.7551,90.7468,154.2430,0,U,36108,999,4694,0,.68E-6,0
DIRECTV 12,2009-075A,2026-07-22T10:50:00.447648,1.00271889,.00002274,0.0075,208.1312,356.2874,155.5562,0,U,36131,999,4690,0,-.1E-5,0
BEIDOU-2 G1,2010-001A,2026-07-22T13:41:58.004736,1.00270082,.0001726,4.3748,60.2868,298.0062,287.9566,0,U,36287,999,6052,0,-.28E-5,0
SDO,2010-005A,2026-07-21T04:42:27.771264,1.00277625,.00016475,34.7200,85.8242,43.2128,138.3850,0,U,36395,999,6040,0,-.97E-6,0
INTELSAT 16 (IS-16),2010-006A,2026-07-22T10:57:37.219392,1.00280786,.00023344,0.0105,342.8048,145.6367,259.9661,0,U,36397,999,6000,0,-.242E-5,0
EWS-G2 (GOES 15),2010-008A,2026-07-22T11:37:18.413760,1.00272217,.00056185,1.3727,82.3814,52.4223,42.9946,0,U,36411,999,5999,0,.25E-6,0
ECHOSTAR 14,2010-010A,2026-07-22T11:58:38.688096,1.00273561,.00021117,0.0123,38.2949,68.2386,254.4702,0,U,36499,999,4690,0,.4E-7,0
SES-1,2010-016A,2026-07-22T10:50:30.399936,1.00272227,.00026775,0.0485,272.6027,201.8989,247.3209,0,U,36516,999,5938,0,-.111E-5,0
ASTRA 3B,2010-021A,2026-07-22T08:00:43.896960,1.00273420,.00042237,1.5570,83.1166,28.6734,331.9736,0,U,36581,999,5922,0,.139E-5,0
COMSATBW-2,2010-021B,2026-07-22T04:32:28.468032,1.00270339,.00024116,0.0413,149.8634,338.5031,252.8804,0,U,36582,999,5930,0,.91E-6,0
BEIDOU-2 G3,2010-024A,2026-07-21T15:28:06.729312,1.00273888,.00072355,4.5954,61.3561,359.4237,190.2146,0,U,36590,999,5911,0,-.137E-5,0
