{"epoch":1784762836,"count":18316,"objects":[{"id":"33459","name":"EUTE HOT BIRD 13C (HB 9)","type":"PAYLOAD","l1":"1 33459U 08065A   26203.46179413 -.00000282  00000-0  00000-0 0  9994","l2":"2 33459   3.0384  78.7725 0003277  41.6911 295.6454  1.00275154 47697"},{"id":"33595","name":"EXPRESS AM-44","type":"PAYLOAD","l1":"1 33595U 09007A   26203.32699470 -.00000089  00000-0  00000-0 0  9992","l2":"2 33595   3.5518  77.9667 0003946  32.8325 295.9642  1.00271825 52635"},{"id":"33749","name":"NSS 9","type":"PAYLOAD","l1":"1 33749U 09008A   26203.53933666  .00000074  00000-0  00000-0 0  9998","l2":"2 33749   1.3506  82.3104 0002397  23.6269 211.5652  1.00271374 63871"},{"id":"34111","name":"TELSTAR 11N","type":"PAYLOAD","l1":"1 34111U 09009A   26203.32170800 -.00000247  00000-0  00000-0 0  9996","l2":"2 34111   0.0146  44.4248 0002571  67.0443 266.8647  1.00272797 46596"},{"id":"34713","name":"WGS F2 (USA 204)","type":"PAYLOAD","l1":"1 34713U 09017A   26203.12671541  .00000070  00000-0  00000-0 0  9992","l2":"2 34713   0.0147  67.6144 0000425  56.0121 279.3692  1.00274111 45965"},{"id":"34941","name":"SES 7 (PROTOSTAR 2)","type":"PAYLOAD","l1":"1 34941U 09027A   26203.58672515 -.00000341  00000-0  00000-0 0  9990","l2":"2 34941   0.0088  33.9706 0001351 155.7647  70.0440  1.00270458 62989"},{"id":"35362","name":"MEASAT 3A","type":"PAYLOAD","l1":"1 35362U 09032A   26203.58203917 -.00000107  00000-0  00000-0 0  9990","l2":"2 35362   0.0217   5.0200 0002936 105.2149 199.6224  1.00272540  8383"},{"id":"35491","name":"EWS-G3","type":"PAYLOAD","l1":"1 35491U 09033A   26203.53378231 -.00000357  00000-0  00000-0 0  9998","l2":"2 35491   1.7784  82.6044 0002224  39.1915 131.0866  1.00094950  6945"},{"id":"35493","name":"SIRIUS FM-5","type":"PAYLOAD","l1":"1 35493U 09034A   26203.41502883 -.00000196  00000-0  00000-0 0  9991","l2":"2 35493   0.0416 259.0521 0000834 127.9469 336.3902  1.00269908 46993"},{"id":"35496","name":"TERRESTAR 1","type":"PAYLOAD","l1":"1 35496U 09035A   26203.48655935 -.00000057  00000-0  00000-0 0  9995","l2":"2 35496   5.1962  48.7608 0002511  67.6033 248.0318  1.00272401 62482"},{"id":"35696","name":"ASIASAT 5","type":"PAYLOAD","l1":"1 35696U 09042A   26203.13933537 -.00000304  00000-0  00000-0 0  9999","l2":"2 35696   0.0135  49.1374 0001279  47.9625 353.4809  1.00271191 62068"},{"id":"35755","name":"JCSAT 12","type":"PAYLOAD","l1":"1 35755U 09044A   26203.52753090 -.00000324  00000-0  00000-0 0  9996","l2":"2 35755   0.0402 270.2445 0000493 267.0181  84.9670  1.00272362 61967"},{"id":"35756","name":"OPTUS D3","type":"PAYLOAD","l1":"1 35756U 09044B   26203.44315825 -.00000142  00000-0  00000-0 0  9996","l2":"2 35756   0.8954 268.1958 0003469 214.5656 133.0881  1.00270669 61916"},{"id":"35873","name":"NIMIQ 5","type":"PAYLOAD","l1":"1 35873U 09050A   26203.45737411 -.00000253  00000-0  00000-0 0  9996","l2":"2 35873   0.0616 258.4979 0002906 211.0934 282.5690  1.00271996 61691"},{"id":"35942","name":"AMAZONAS 2","type":"PAYLOAD","l1":"1 35942U 09054A   26203.45746078 -.00000257  00000-0  00000-0 0  9990","l2":"2 35942   1.9043  82.5981 0003451  33.4553 276.8458  1.00272403 61535"},{"id":"35943","name":"COMSATBW-1","type":"PAYLOAD","l1":"1 35943U 09054B   26203.48424090  .00000028  00000-0  00000-0 0  9996","l2":"2 35943   0.0666 152.1374 0002967 328.4680  56.9514  1.00272446 61667"},{"id":"36032","name":"NSS 12","type":"PAYLOAD","l1":"1 36032U 09058A   26203.48302757  .00000075  00000-0  00000-0 0  9997","l2":"2 36032   0.0746 268.9607 0004936 174.9538  87.2026  1.00273873 61272"},{"id":"36033","name":"THOR 6","type":"PAYLOAD","l1":"1 36033U 09058B   26203.32898804 -.00000006  00000-0  00000-0 0  9999","l2":"2 36033   0.0168 109.3008 0001902  17.1482 291.2179  1.00273058 61350"},{"id":"36097","name":"INTELSAT 14","type":"PAYLOAD","l1":"1 36097U 09064A   26203.46283413 -.00000270  00000-0  00000-0 0  9998","l2":"2 36097   0.0181  51.7816 0002552  71.7168 298.3234  1.00271355 60954"},{"id":"36101","name":"EUTE 36B (EUTE W7)","type":"PAYLOAD","l1":"1 36101U 09065A   26203.48172756  .00000115  00000-0  00000-0 0  9991","l2":"2 36101   0.5775  81.3632 0005766  36.0065  46.7588  1.00272368 61064"},{"id":"36106","name":"INTELSAT 15","type":"PAYLOAD","l1":"1 36106U 09067A   26203.41730311 -.00000182  00000-0  00000-0 0  9993","l2":"2 36106   0.0153  55.5822 0002377  64.1162  55.8434  1.00272250 41589"},{"id":"36108","name":"WGS F3 (USA 211)","type":"PAYLOAD","l1":"1 36108U 09068A   26203.44602072  .00000068  00000-0  00000-0 0  9993","l2":"2 36108   0.2917  85.7551 0000329  90.7468 154.2430  1.00264639 46941"},{"id":"36131","name":"DIRECTV 12","type":"PAYLOAD","l1":"1 36131U 09075A   26203.45139407 -.00000100  00000-0  00000-0 0  9993","l2":"2 36131   0.0075 208.1312 0000227 356.2874 155.5562  1.00271889 46905"},{"id":"36287","name":"BEIDOU 3","type":"PAYLOAD","l1":"1 36287U 10001A   26203.57081024 -.00000280  00000-0  00000-0 0  9999","l2":"2 36287   4.3748  60.2868 0001726 298.0062 287.9566  1.00270082 60523"},{"id":"36395","name":"SDO","type":"PAYLOAD","l1":"1 36395U 10005A   26202.19615476 -.00000097  00000-0  00000-0 0  9990","l2":"2 36395  34.7200  85.8242 0001647  43.2128 138.3850  1.00277625 60409"},{"id":"36397","name":"INTELSAT 16","type":"PAYLOAD","l1":"1 36397U 10006A   26203.45668078 -.00000242  00000-0  00000-0 0  9991","l2":"2 36397   0.0105 342.8048 0002334 145.6367 259.9661  1.00280786 60005"},{"id":"36411","name":"EWS-G2","type":"PAYLOAD","l1":"1 36411U 10008A   26203.48424090  .00000025  00000-0  00000-0 0  9995","l2":"2 36411   1.3727  82.3814 0005619  52.4223  42.9946  1.00272217 59990"},{"id":"36499","name":"ECHOSTAR 14","type":"PAYLOAD","l1":"1 36499U 10010A   26203.49905889  .00000004  00000-0  00000-0 0  9992","l2":"2 36499   0.0123  38.2949 0002112  68.2386 254.4702  1.00273561 46901"},{"id":"36516","name":"SES 1","type":"PAYLOAD","l1":"1 36516U 10016A   26203.45174074 -.00000111  00000-0  00000-0 0  9998","l2":"2 36516   0.0485 272.6027 0002677 201.8989 247.3209  1.00272227 59380"},{"id":"36581","name":"ASTRA 3B","type":"PAYLOAD","l1":"1 36581U 10021A   26203.33384140  .00000139  00000-0  00000-0 0  9999","l2":"2 36581   1.5570  83.1166 0004224  28.6734 331.9736  1.00273420 59229"},{"id":"36582","name":"COMSATBW-2","type":"PAYLOAD","l1":"1 36582U 10021B   26203.18921838  .00000091  00000-0  00000-0 0  9991","l2":"2 36582   0.0413 149.8634 0002412 338.5031 252.8804  1.00270339 59302"},{"id":"36590","name":"BEIDOU 4","type":"PAYLOAD","l1":"1 36590U 10024A   26202.64452233 -.00000137  00000-0  00000-0 0  9993","l2":"2 36590   4.5954  61.3561 0007235 359.4237 190.2146  1.00273888 59110"}]}